OBJECT_NAME,OBJECT_ID,EPOCH,MEAN_MOTION,ECCENTRICITY,INCLINATION,RA_OF_ASC_NODE,ARG_OF_PERICENTER,MEAN_ANOMALY,EPHEMERIS_TYPE,CLASSIFICATION_TYPE,NORAD_CAT_ID,ELEMENT_SET_NO,REV_AT_EPOCH,BSTAR,MEAN_MOTION_DOT,MEAN_MOTION_DDOT
STARLINK-11589 [DTC],2025-057E,2026-07-15T10:23:18.404160,15.70842965,.00015469,42.9991,214.9539,266.2648,93.8043,0,U,63311,999,7726,.79176179E-3,.102418E-2,0
STARLINK-11650 [DTC],2025-057F,2026-07-15T17:39:28.556352,15.70893476,.00012719,43.0004,212.9165,295.8479,64.2257,0,U,63312,999,7734,.11296959E-2,.147435E-2,0
STARLINK-11648 [DTC],2025-057G,2026-07-15T22:00:01.999584,15.70882558,.00013963,43.0003,211.8123,257.0760,52.6238,0,U,63313,999,561,-.10188376E-2,-.129396E-2,0
STARLINK-11640 [DTC],2025-057H,2026-07-15T09:52:43.251744,15.70861102,.00024664,43.0003,214.7809,290.9669,69.0935,0,U,63314,999,7726,.84243365E-3,.109182E-2,0
STARLINK-11652 [DTC],2025-057J,2026-07-15T01:59:37.824288,15.70940626,.00022979,42.9996,216.6135,280.9599,79.1011,0,U,63315,999,7724,.90131561E-3,.117351E-2,0
STARLINK-11645 [DTC],2025-057K,2026-07-15T22:20:29.423904,15.70870729,.00008578,42.9983,211.7973,111.6427,248.4533,0,U,63316,999,7737,.16347381E-3,.20606E-3,0
STARLINK-11633 [DTC],2025-057L,2026-07-15T18:08:34.349568,15.70871451,.00003869,42.9984,212.1827,3.2573,356.8297,0,U,63317,999,7732,.11041367E-2,.143895E-2,0
STARLINK-11593 [DTC],2025-057M,2026-07-15T18:23:51.826848,15.70871317,.00001079,42.9981,212.2684,93.0059,267.0821,0,U,63318,999,7735,.11052437E-2,.144044E-2,0
STARLINK-11588 [DTC],2025-057N,2026-07-15T11:01:20.932320,15.70823879,.00013619,42.9998,214.2690,259.8173,100.2541,0,U,63319,999,7727,.11076119E-2,.144063E-2,0
STARLINK-33671,2025-057P,2026-07-15T20:50:35.458080,15.27587345,.00015092,43.0017,16.3310,269.3507,90.7172,0,U,63320,999,7550,.56108648E-3,.15213E-3,0
STARLINK-33650,2025-057Q,2026-07-15T20:54:02.704896,15.27582031,.00028473,43.0082,26.7170,248.7597,111.2951,0,U,63321,999,7534,.55564628E-3,.15061E-3,0
STARLINK-33689,2025-057R,2026-07-15T22:17:07.222848,15.27576460,.00013709,42.9993,26.3025,342.0491,18.0312,0,U,63322,999,7539,.31130471E-3,.8313E-4,0
STARLINK-33607,2025-057S,2026-07-15T22:48:34.096896,15.27591168,.00010335,42.9980,26.4751,331.3227,28.7567,0,U,63323,999,7535,.30479615E-3,.8137E-4,0
STARLINK-33619,2025-057T,2026-07-15T22:04:09.437952,15.27588613,.00014408,43.0017,26.2345,328.3206,31.7559,0,U,63324,999,7539,.3517877E-3,.9433E-4,0
STARLINK-33612,2025-057U,2026-07-15T21:49:33.557088,15.27593164,.00021518,43.0052,27.0192,263.1453,96.9154,0,U,63325,999,7538,.49483239E-3,.13385E-3,0
STARLINK-33672,2025-057V,2026-07-15T20:52:12.830880,15.27584412,.0002652,43.0004,26.6997,20.5161,339.5797,0,U,63326,999,7538,.31604968E-3,.8446E-4,0
STARLINK-33625,2025-057W,2026-07-15T22:00:01.999584,15.27557070,.0001607,43.0039,19.0893,271.7774,173.3281,0,U,63327,999,581,.18347631E-2,.50538E-3,0
STARLINK-33699,2025-057X,2026-07-15T21:21:08.694144,15.27574705,.0000928,43.0016,19.0818,269.3657,90.7088,0,U,63328,999,7543,.24848965E-3,.6581E-4,0
STARLINK-33674,2025-057Y,2026-07-15T21:25:30.526752,15.27584943,.00010087,43.0073,26.8914,317.2258,42.8516,0,U,63329,999,7538,.39764761E-3,.10698E-3,0
STARLINK-32840,2025-063A,2026-07-15T22:18:53.597664,15.34398483,.0000894,53.1583,172.5543,89.0309,271.0796,0,U,63363,999,7443,.22903386E-3,.7369E-4,0
STARLINK-32543,2025-063B,2026-07-15T08:41:59.988768,15.34401203,.00011986,53.1574,175.4114,79.3342,280.7796,0,U,63364,999,7435,.33874708E-3,.11086E-3,0
STARLINK-33741,2025-063C,2026-07-15T06:16:49.109664,15.34405201,.00012117,53.1574,176.1878,97.5501,262.5639,0,U,63365,999,7434,.30771808E-3,.10036E-3,0
STARLINK-33742,2025-063D,2026-07-15T22:00:08.043264,15.30201056,.0001546,53.1578,176.7205,52.0599,308.0541,0,U,63366,999,7434,.335303E-3,.9585E-4,0
STARLINK-33734,2025-063E,2026-07-15T22:00:01.999584,15.34368079,.00005005,53.1584,186.6742,92.5976,249.7103,0,U,63367,999,581,.14007631E-2,.47201E-3,0
STARLINK-33578,2025-063F,2026-07-15T15:36:33.960384,15.34401873,.00014211,53.1577,174.3525,79.8386,280.2777,0,U,63368,999,7434,.24010445E-3,.7745E-4,0
STARLINK-33626,2025-063G,2026-07-15T22:58:15.482496,15.34417151,.00011889,53.1572,172.7096,99.5794,260.5343,0,U,63369,999,7440,.42978442E-3,.1418E-3,0
STARLINK-33657,2025-063H,2026-07-15T21:45:41.406336,15.34397314,.00015387,53.1556,173.1056,86.5425,273.5753,0,U,63370,999,7439,.21193541E-3,.679E-4,0
STARLINK-33648,2025-063J,2026-07-15T23:17:31.452288,15.31711138,.00013993,53.1580,176.3455,96.6443,263.4718,0,U,63371,999,7440,.34031215E-3,.10213E-3,0
STARLINK-33614,2025-063K,2026-07-15T22:00:50.380992,15.34378604,.00012616,53.1584,173.1726,80.1304,279.9841,0,U,63372,999,7444,.35031476E-3,.1147E-3,0
STARLINK-33617,2025-063L,2026-07-15T15:54:44.718912,15.34397850,.00014009,53.1587,174.4205,106.9343,253.1813,0,U,63373,999,7435,.18600748E-3,.5913E-4,0
