STARLINK-11589 [DTC]    
1 63311U 25057E   26196.43285190  .00102418  00000+0  79176-3 0  9997
2 63311  42.9991 214.9539 0001546 266.2648  93.8043 15.70842965 77269
STARLINK-11650 [DTC]    
1 63312U 25057F   26196.73574718  .00147435  00000+0  11297-2 0  9995
2 63312  43.0004 212.9165 0001271 295.8479  64.2257 15.70893476 77346
STARLINK-11648 [DTC]    
1 63313U 25057G   26196.91668981 -.00129396  00000+0 -10188-2 0  9998
2 63313  43.0003 211.8123 0001396 257.0760  52.6238 15.70882558  5619
STARLINK-11640 [DTC]    
1 63314U 25057H   26196.41161171  .00109182  00000+0  84243-3 0  9996
2 63314  43.0003 214.7809 0002466 290.9669  69.0935 15.70861102 77264
STARLINK-11652 [DTC]    
1 63315U 25057J   26196.08307667  .00117351  00000+0  90132-3 0  9993
2 63315  42.9996 216.6135 0002297 280.9599  79.1011 15.70940626 77244
STARLINK-11645 [DTC]    
1 63316U 25057K   26196.93089611  .00020606  00000+0  16347-3 0  9996
2 63316  42.9983 211.7973 0000857 111.6427 248.4533 15.70870729 77377
STARLINK-11633 [DTC]    
1 63317U 25057L   26196.75595312  .00143895  00000+0  11041-2 0  9998
2 63317  42.9984 212.1827 0000386   3.2573 356.8297 15.70871451 77326
STARLINK-11593 [DTC]    
1 63318U 25057M   26196.76657207  .00144044  00000+0  11052-2 0  9991
2 63318  42.9981 212.2684 0000107  93.0059 267.0821 15.70871317 77353
STARLINK-11588 [DTC]    
1 63319U 25057N   26196.45927005  .00144063  00000+0  11076-2 0  9991
2 63319  42.9998 214.2690 0001361 259.8173 100.2541 15.70823879 77271
STARLINK-33671          
1 63320U 25057P   26196.86846595  .00015213  00000+0  56109-3 0  9993
2 63320  43.0017  16.3310 0001509 269.3507  90.7172 15.27587345 75502
STARLINK-33650          
1 63321U 25057Q   26196.87086464  .00015061  00000+0  55565-3 0  9992
2 63321  43.0082  26.7170 0002847 248.7597 111.2951 15.27582031 75343
STARLINK-33689          
1 63322U 25057R   26196.92855582  .00008313  00000+0  31130-3 0  9998
2 63322  42.9993  26.3025 0001370 342.0491  18.0312 15.27576460 75398
STARLINK-33607          
1 63323U 25057S   26196.95039464  .00008137  00000+0  30480-3 0  9996
2 63323  42.9980  26.4751 0001033 331.3227  28.7567 15.27591168 75354
STARLINK-33619          
1 63324U 25057T   26196.91955368  .00009433  00000+0  35179-3 0  9993
2 63324  43.0017  26.2345 0001440 328.3206  31.7559 15.27588613 75390
STARLINK-33612          
1 63325U 25057U   26196.90941617  .00013385  00000+0  49483-3 0  9999
2 63325  43.0052  27.0192 0002151 263.1453  96.9154 15.27593164 75389
STARLINK-33672          
1 63326U 25057V   26196.86959295  .00008446  00000+0  31605-3 0  9995
2 63326  43.0004  26.6997 0002652  20.5161 339.5797 15.27584412 75387
STARLINK-33625          
1 63327U 25057W   26196.91668981  .00050538  00000+0  18348-2 0  9998
2 63327  43.0039  19.0893 0001607 271.7774 173.3281 15.27557070  5819
STARLINK-33699          
1 63328U 25057X   26196.88968396  .00006581  00000+0  24849-3 0  9991
2 63328  43.0016  19.0818 0000928 269.3657  90.7088 15.27574705 75436
STARLINK-33674          
1 63329U 25057Y   26196.89271443  .00010698  00000+0  39765-3 0  9990
2 63329  43.0073  26.8914 0001008 317.2258  42.8516 15.27584943 75386
STARLINK-32840          
1 63363U 25063A   26196.92978701  .00007369  00000+0  22903-3 0  9997
2 63363  53.1583 172.5543 0000894  89.0309 271.0796 15.34398483 74433
STARLINK-32543          
1 63364U 25063B   26196.36249987  .00011086  00000+0  33875-3 0  9994
2 63364  53.1574 175.4114 0001198  79.3342 280.7796 15.34401203 74350
STARLINK-33741          
1 63365U 25063C   26196.26167951  .00010036  00000+0  30772-3 0  9991
2 63365  53.1574 176.1878 0001211  97.5501 262.5639 15.34405201 74346
STARLINK-33742          
1 63366U 25063D   26196.91675976  .00009585  00000+0  33530-3 0  9997
2 63366  53.1578 176.7205 0001546  52.0599 308.0541 15.30201056 74341
STARLINK-33734          
1 63367U 25063E   26196.91668981  .00047201  00000+0  14008-2 0  9991
2 63367  53.1584 186.6742 0000500  92.5976 249.7103 15.34368079  5816
STARLINK-33578          
1 63368U 25063F   26196.65039306  .00007745  00000+0  24010-3 0  9990
2 63368  53.1577 174.3525 0001421  79.8386 280.2777 15.34401873 74349
STARLINK-33626          
1 63369U 25063G   26196.95712364  .00014180  00000+0  42978-3 0  9990
2 63369  53.1572 172.7096 0001188  99.5794 260.5343 15.34417151 74405
STARLINK-33657          
1 63370U 25063H   26196.90672924  .00006790  00000+0  21194-3 0  9999
2 63370  53.1556 173.1056 0001538  86.5425 273.5753 15.34397314 74391
STARLINK-33648          
1 63371U 25063J   26196.97050292  .00010213  00000+0  34031-3 0  9994
2 63371  53.1580 176.3455 0001399  96.6443 263.4718 15.31711138 74406
STARLINK-33614          
1 63372U 25063K   26196.91724978  .00011470  00000+0  35031-3 0  9995
2 63372  53.1584 173.1726 0001261  80.1304 279.9841 15.34378604 74442
STARLINK-33617          
1 63373U 25063L   26196.66301758  .00005913  00000+0  18601-3 0  9994
2 63373  53.1587 174.4205 0001400 106.9343 253.1813 15.34397850 74354
